[{"OBJECT_NAME":"STARLINK-34667","OBJECT_ID":"2025-150AB","EPOCH":"2026-03-09T14:29:26.974752","MEAN_MOTION":14.9833428,"ECCENTRICITY":0.0003357,"INCLINATION":70.002,"RA_OF_ASC_NODE":134.6792,"ARG_OF_PERICENTER":272.4516,"MEAN_ANOMALY":87.6259,"EPHEMERIS_TYPE":0,"CLASSIFICATION_TYPE":"U","NORAD_CAT_ID":64815,"ELEMENT_SET_NO":999,"REV_AT_EPOCH":3650,"BSTAR":0.00043976,"MEAN_MOTION_DOT":5.159e-5,"MEAN_MOTION_DDOT":0},{"OBJECT_NAME":"NIGERIASAT-1","OBJECT_ID":"2003-042C","EPOCH":"2026-03-09T23:18:28.284480","MEAN_MOTION":14.90021828,"ECCENTRICITY":0.00412391,"INCLINATION":98.0062,"RA_OF_ASC_NODE":259.4679,"ARG_OF_PERICENTER":255.6174,"MEAN_ANOMALY":104.0464,"EPHEMERIS_TYPE":0,"CLASSIFICATION_TYPE":"U","NORAD_CAT_ID":27941,"ELEMENT_SET_NO":999,"REV_AT_EPOCH":20905,"BSTAR":0.0001905973,"MEAN_MOTION_DOT":1.807e-5,"MEAN_MOTION_DDOT":0}]
